NORAD_CAT_ID,OBJECT_NAME,OBJECT_TYPE,EPOCH,MEAN_MOTION,ECCENTRICITY,INCLINATION,RA_OF_ASC_NODE,ARG_OF_PERICENTER,MEAN_ANOMALY,BSTAR,MEAN_MOTION_DOT,MEAN_MOTION_DDOT,TLE_LINE0,TLE_LINE1,TLE_LINE2,SEMIMAJOR_AXIS,PERIOD,APOGEE,PERIGEE,DECAYED
53262.0,STARLINK-4085,PAYLOAD,2023-03-15 08:45:28,15.08881021,0.0001108,53.2174,48.7817,83.8446,276.2673,0.0014732,0.00023262,0.0,0 STARLINK-4085,1 53262U 22086W   23074.36491486  .00023262  00000-0  14732-2 0  9997,2 53262  53.2174  48.7817 0001108  83.8446 276.2673 15.08881021 36286,6917.755,95.435,540.386,538.854,0.0
53262.0,STARLINK-4085,PAYLOAD,2023-03-16 05:25:29,15.0885021,0.0001434,53.2167,44.9151,82.7773,277.3382,0.00086036,0.00013435,0.0,0 STARLINK-4085,1 53262U 22086W   23075.22603887  .00013435  00000-0  86036-3 0  9991,2 53262  53.2167  44.9151 0001434  82.7773 277.3382 15.08850210 36410,6917.849,95.437,540.706,538.722,0.0
53262.0,STARLINK-4085,PAYLOAD,2023-03-16 10:11:38,15.08863614,0.0001404,53.2165,44.0227,96.1691,263.9461,0.00096393,0.00015096,0.0,0 STARLINK-4085,1 53262U 22086W   23075.42475395  .00015096  00000-0  96393-3 0  9996,2 53262  53.2165  44.0227 0001404  96.1691 263.9461 15.08863614 36622,6917.808,95.436,540.644,538.702,0.0
53262.0,STARLINK-4085,PAYLOAD,2023-03-16 21:19:21,15.08812932,0.000142,53.2168,41.9428,99.2942,260.8211,0.0015159,0.00023902,0.0,0 STARLINK-4085,1 53262U 22086W   23075.88844591  .00023902  00000-0  15159-2 0  9999,2 53262  53.2168  41.9428 0001420  99.2942 260.8211 15.08812932 36519,6917.963,95.439,540.81,538.846,0.0
53262.0,STARLINK-4085,PAYLOAD,2023-03-17 10:02:26,15.08843324,0.0001518,53.216,39.563,104.5805,255.5355,0.0015394,0.00024299,0.0,0 STARLINK-4085,1 53262U 22086W   23076.41836713  .00024299  00000-0  15394-2 0  9997,2 53262  53.2160  39.5630 0001518 104.5805 255.5355 15.08843324 36772,6917.87,95.437,540.785,538.685,0.0
53262.0,STARLINK-4085,PAYLOAD,2023-03-17 21:10:09,15.08835898,0.000132,53.2168,37.4811,98.9133,261.2008,0.0010089,0.00015803,0.0,0 STARLINK-4085,1 53262U 22086W   23076.88205334  .00015803  00000-0  10089-2 0  9994,2 53262  53.2168  37.4811 0001320  98.9133 261.2008 15.08835898 36663,6917.893,95.438,540.671,538.845,0.0
53262.0,STARLINK-4085,PAYLOAD,2023-03-18 14:39:23,15.08849195,8.83e-05,53.2172,34.2109,92.387,267.7224,0.001144,0.0001797,0.0,0 STARLINK-4085,1 53262U 22086W   23077.61069304  .00017970  00000-0  11440-2 0  9990,2 53262  53.2172  34.2109 0000883  92.3870 267.7224 15.08849195 36770,6917.852,95.437,540.328,539.106,0.0
53262.0,STARLINK-4085,PAYLOAD,2023-03-19 03:22:28,15.08847271,0.0001266,53.217,31.83,98.2682,261.8454,0.00051953,7.992e-05,0.0,0 STARLINK-4085,1 53262U 22086W   23078.14061305  .00007992  00000-0  51953-3 0  9999,2 53262  53.2170  31.8300 0001266  98.2682 261.8454 15.08847271 36858,6917.858,95.437,540.599,538.847,0.0
53262.0,STARLINK-4085,PAYLOAD,2023-03-20 03:13:16,15.08844884,0.0001284,53.2176,27.3716,85.9278,274.1861,0.00019012,2.74e-05,0.0,0 STARLINK-4085,1 53262U 22086W   23079.13421410  .00002740  00000-0  19012-3 0  9992,2 53262  53.2176  27.3716 0001284  85.9278 274.1861 15.08844884 37003,6917.865,95.437,540.619,538.842,0.0
53262.0,STARLINK-4085,PAYLOAD,2023-03-20 06:24:02,15.08847121,0.0001245,53.2176,26.7763,86.8105,273.303,0.00022445,3.287e-05,0.0,0 STARLINK-4085,1 53262U 22086W   23079.26669276  .00003287  00000-0  22445-3 0  9991,2 53262  53.2176  26.7763 0001245  86.8105 273.3030 15.08847121 37202,6917.859,95.437,540.585,538.862,0.0
53262.0,STARLINK-4085,PAYLOAD,2023-03-21 03:04:02,15.08852931,0.0001141,53.2179,22.9125,93.7393,266.373,0.00025958,3.847e-05,0.0,0 STARLINK-4085,1 53262U 22086W   23080.12780799  .00003847  00000-0  25958-3 0  9996,2 53262  53.2179  22.9125 0001141  93.7393 266.3730 15.08852931 37334,6917.841,95.437,540.495,538.917,0.0
53262.0,STARLINK-4085,PAYLOAD,2023-03-22 02:54:50,15.08839679,0.0001097,53.2174,18.4509,86.7332,273.3785,2.0166e-05,3.3e-07,0.0,0 STARLINK-4085,1 53262U 22086W   23081.12141535  .00000033  00000-0  20166-4 0  9997,2 53262  53.2174  18.4509 0001097  86.7332 273.3785 15.08839679 37309,6917.881,95.438,540.505,538.987,0.0
53262.0,STARLINK-4085,PAYLOAD,2023-03-23 04:20:59,15.08857314,0.0001211,53.2185,13.6961,102.7459,257.3668,0.00040536,6.172e-05,0.0,0 STARLINK-4085,1 53262U 22086W   23082.18124908  .00006172  00000-0  40536-3 0  9991,2 53262  53.2185  13.6961 0001211 102.7459 257.3668 15.08857314 37462,6917.827,95.436,540.53,538.855,0.0
53262.0,STARLINK-4085,PAYLOAD,2023-03-24 04:11:46,15.08904292,0.0001122,53.2167,9.2362,112.1078,248.0033,0.0023212,0.00036913,0.0,0 STARLINK-4085,1 53262U 22086W   23083.17484689  .00036913  00000-0  23212-2 0  9993,2 53262  53.2167   9.2362 0001122 112.1078 248.0033 15.08904292 37619,6917.684,95.433,540.325,538.773,0.0
53262.0,STARLINK-4085,PAYLOAD,2023-03-24 21:40:59,15.08905934,0.0001116,53.2162,5.9593,82.4805,277.6314,0.0015682,0.00024803,0.0,0 STARLINK-4085,1 53262U 22086W   23083.90346723  .00024803  00000-0  15682-2 0  9997,2 53262  53.2162   5.9593 0001116  82.4805 277.6314 15.08905934 37909,6917.679,95.433,540.316,538.772,0.0
53262.0,STARLINK-4085,PAYLOAD,2023-03-25 04:02:34,15.08855639,0.0001456,53.2165,4.7745,92.5607,267.5551,0.0014794,0.00023345,0.0,0 STARLINK-4085,1 53262U 22086W   23084.16845729  .00023345  00000-0  14794-2 0  9999,2 53262  53.2165   4.7745 0001456  92.5607 267.5551 15.08855639 37768,6917.833,95.437,540.705,538.69,0.0
53262.0,STARLINK-4085,PAYLOAD,2023-03-25 05:37:57,15.08861306,0.000142,53.216,4.478,89.3067,270.8088,0.0015413,0.00024341,0.0,0 STARLINK-4085,1 53262U 22086W   23084.23469636  .00024341  00000-0  15413-2 0  9992,2 53262  53.2160   4.4780 0001420  89.3067 270.8088 15.08861306 37955,6917.815,95.436,540.663,538.698,0.0
53262.0,STARLINK-4085,PAYLOAD,2023-03-26 00:42:36,15.08839876,0.000154,53.2164,0.9087,116.1408,243.9743,0.0012522,0.00019697,0.0,0 STARLINK-4085,1 53262U 22086W   23085.02958494  .00019697  00000-0  12522-2 0  9991,2 53262  53.2164   0.9087 0001540 116.1408 243.9743 15.08839876 37890,6917.881,95.438,540.811,538.68,0.0
53262.0,STARLINK-4085,PAYLOAD,2023-03-26 22:58:02,15.0881186,0.000157,53.216,356.7465,111.04,249.076,0.0010849,0.00017007,0.0,0 STARLINK-4085,1 53262U 22086W   23085.95696929  .00017007  00000-0  10849-2 0  9998,2 53262  53.2160 356.7465 0001570 111.0400 249.0760 15.08811860 38213,6917.966,95.439,540.918,538.745,0.0
53262.0,STARLINK-4085,PAYLOAD,2023-03-27 00:33:25,15.08812264,0.0001435,53.2162,356.4477,96.0862,264.0293,0.0011614,0.0001823,0.0,0 STARLINK-4085,1 53262U 22086W   23086.02321200  .00018230  00000-0  11614-2 0  9994,2 53262  53.2162 356.4477 0001435  96.0862 264.0293 15.08812264 38047,6917.965,95.439,540.823,538.837,0.0
53262.0,STARLINK-4085,PAYLOAD,2023-03-27 21:13:25,15.08880878,0.0001344,53.2168,352.5808,92.5809,267.5337,0.0020109,0.00031897,0.0,0 STARLINK-4085,1 53262U 22086W   23086.88432327  .00031897  00000-0  20109-2 0  9994,2 53262  53.2168 352.5808 0001344  92.5809 267.5337 15.08880878 38176,6917.755,95.435,540.55,538.691,0.0
53262.0,STARLINK-4085,PAYLOAD,2023-03-28 03:34:57,15.08903201,0.0001446,53.217,351.3913,98.3753,261.7403,0.0021336,0.00033891,0.0,0 STARLINK-4085,1 53262U 22086W   23087.14927268  .00033891  00000-0  21336-2 0  9996,2 53262  53.2170 351.3913 0001446  98.3753 261.7403 15.08903201 38398,6917.687,95.434,540.553,538.552,0.0
53262.0,STARLINK-4085,PAYLOAD,2023-03-28 21:04:10,15.08877806,0.0001483,53.217,348.1202,92.8427,267.2735,0.0014052,0.0002217,0.0,0 STARLINK-4085,1 53262U 22086W   23087.87790351  .00022170  00000-0  14052-2 0  9992,2 53262  53.2170 348.1202 0001483  92.8427 267.2735 15.08877806 38504,6917.765,95.435,540.656,538.604,0.0
53262.0,STARLINK-4085,PAYLOAD,2023-03-28 22:39:33,15.08880736,0.0001154,53.2167,347.8225,100.2282,259.8841,0.0017119,0.00027092,0.0,0 STARLINK-4085,1 53262U 22086W   23087.94414198  .00027092  00000-0  17119-2 0  9997,2 53262  53.2167 347.8225 0001154 100.2282 259.8841 15.08880736 38331,6917.756,95.435,540.419,538.823,0.0
53262.0,STARLINK-4085,PAYLOAD,2023-03-29 03:25:42,15.0888564,0.0001192,53.2169,346.9306,91.5938,268.5191,0.0018491,0.000293,0.0,0 STARLINK-4085,1 53262U 22086W   23088.14285817  .00029300  00000-0  18491-2 0  9992,2 53262  53.2169 346.9306 0001192  91.5938 268.5191 15.08885640 38542,6917.741,95.435,540.43,538.781,0.0
53262.0,STARLINK-4085,PAYLOAD,2023-03-30 03:16:30,15.08866548,0.0001294,53.2161,342.4696,104.3524,255.7612,0.0020141,0.00031935,0.0,0 STARLINK-4085,1 53262U 22086W   23089.13645964  .00031935  00000-0  20141-2 0  9997,2 53262  53.2161 342.4696 0001294 104.3524 255.7612 15.08866548 38513,6917.799,95.436,540.559,538.769,0.0
53262.0,STARLINK-4085,PAYLOAD,2023-03-30 15:59:35,15.08814596,0.0001169,53.2163,340.0904,115.9685,244.1428,0.00085883,0.00013397,0.0,0 STARLINK-4085,1 53262U 22086W   23089.66638741  .00013397  00000-0  85883-3 0  9997,2 53262  53.2163 340.0904 0001169 115.9685 244.1428 15.08814596 38599,6917.958,95.439,540.632,539.014,0.0
53262.0,STARLINK-4085,PAYLOAD,2023-03-31 01:31:54,15.08853971,0.0001131,53.2163,338.3067,102.1326,257.9792,0.0025239,0.00040124,0.0,0 STARLINK-4085,1 53262U 22086W   23090.06382632  .00040124  00000-0  25239-2 0  9994,2 53262  53.2163 338.3067 0001131 102.1326 257.9792 15.08853971 38651,6917.838,95.437,540.485,538.92,0.0
53262.0,STARLINK-4085,PAYLOAD,2023-03-31 20:36:32,15.08847976,0.0001841,53.2149,334.735,146.7085,213.4023,0.0010493,0.00016455,0.0,0 STARLINK-4085,1 53262U 22086W   23090.85870636  .00016455  00000-0  10493-2 0  9993,2 53262  53.2149 334.7350 0001841 146.7085 213.4023 15.08847976 38779,6917.856,95.437,540.995,538.447,0.0
53262.0,STARLINK-4085,PAYLOAD,2023-04-01 01:22:41,15.08847879,0.0001053,53.216,333.8461,80.3332,279.7779,0.00080178,0.00012498,0.0,0 STARLINK-4085,1 53262U 22086W   23091.05742997  .00012498  00000-0  80178-3 0  9995,2 53262  53.2160 333.8461 0001053  80.3332 279.7779 15.08847879 38807,6917.856,95.437,540.45,538.993,0.0
